ISS (ZARYA)             
1 25544U 98067A   25300.68375554  .00015570  00000+0  28487-3 0  9992
2 25544  51.6344  10.4932 0004705 346.2107  13.8753 15.49527127535714
CSS (TIANHE)            
1 48274U 21035A   25300.92737871  .00037011  00000+0  43233-3 0  9999
2 48274  41.4667 294.9902 0010824 295.4646  64.5073 15.60799969256875
ISS (NAUKA)             
1 49044U 21066A   25300.68375554  .00015570  00000+0  28487-3 0  9998
2 49044  51.6344  10.4932 0004705 346.2107  13.8753 15.49527127230447
FREGAT DEB              
1 49271U 11037PF  25300.08622419  .00000081  00000+0  37791-3 0  9995
2 49271  51.6267 337.3784 0894951 123.1118 245.8879 12.33751980196176
CSS (WENTIAN)           
1 53239U 22085A   25300.92737871  .00037011  00000+0  43233-3 0  9992
2 53239  41.4667 294.9902 0010824 295.4646  64.5073 15.60799969173847
CSS (MENGTIAN)          
1 54216U 22143A   25300.92737871  .00037011  00000+0  43233-3 0  9993
2 54216  41.4667 294.9902 0010824 295.4646  64.5073 15.60799969158644
SOYUZ-MS 27             
1 63520U 25072A   25300.68375554  .00015570  00000+0  28487-3 0  9994
2 63520  51.6344  10.4932 0004705 346.2107  13.8753 15.49527127 20203
SHENZHOU-20 (SZ-20)     
1 63632U 25082A   25300.92737871  .00037011  00000+0  43233-3 0  9990
2 63632  41.4667 294.9902 0010824 295.4646  64.5073 15.60799969255307
PROGRESS-MS 31          
1 64751U 25146A   25300.68375554  .00015570  00000+0  28487-3 0  9993
2 64751  51.6344  10.4932 0004705 346.2107  13.8753 15.49527127  6754
TIANZHOU-9              
1 64786U 25149A   25300.92737871  .00037011  00000+0  43233-3 0  9995
2 64786  41.4667 294.9902 0010824 295.4646  64.5073 15.60799969255308
CREW DRAGON 11          
1 65077U 25166A   25300.68375554  .00015570  00000+0  28487-3 0  9997
2 65077  51.6344  10.4932 0004705 346.2107  13.8753 15.49527127  2145
DRAGON CRS-33           
1 65304U 25186A   25300.68375554  .00015570  00000+0  28487-3 0  9992
2 65304  51.6344  10.4932 0004705 346.2107  13.8753 15.49527127   113
