CCSDS_OMM_VERS = 2.0
CREATION_DATE  = 
ORIGINATOR     = 

OBJECT_NAME    = ISS (ZARYA)
OBJECT_ID      = 1998-067A
CENTER_NAME    = EARTH
REF_FRAME      = TEME
TIME_SYSTEM    = UTC
MEAN_ELEMENT_THEORY = SGP/SGP4

EPOCH          = 2025-10-27T16:24:36.478656
MEAN_MOTION    = 15.49527127
ECCENTRICITY   = .00047051
INCLINATION    = 51.6344
RA_OF_ASC_NODE = 10.4932
ARG_OF_PERICENTER = 346.2107
MEAN_ANOMALY   = 13.8753

EPHEMERIS_TYPE = 0
CLASSIFICATION_TYPE = U
NORAD_CAT_ID   = 25544
ELEMENT_SET_NO = 999
REV_AT_EPOCH   = 53571
BSTAR          = .28486893E-3
MEAN_MOTION_DOT = .1557E-3
MEAN_MOTION_DDOT = 0

CCSDS_OMM_VERS = 2.0
CREATION_DATE  = 
ORIGINATOR     = 

OBJECT_NAME    = CSS (TIANHE)
OBJECT_ID      = 2021-035A
CENTER_NAME    = EARTH
REF_FRAME      = TEME
TIME_SYSTEM    = UTC
MEAN_ELEMENT_THEORY = SGP/SGP4

EPOCH          = 2025-10-27T22:15:25.520544
MEAN_MOTION    = 15.60799969
ECCENTRICITY   = .00108247
INCLINATION    = 41.4667
RA_OF_ASC_NODE = 294.9902
ARG_OF_PERICENTER = 295.4646
MEAN_ANOMALY   = 64.5073

EPHEMERIS_TYPE = 0
CLASSIFICATION_TYPE = U
NORAD_CAT_ID   = 48274
ELEMENT_SET_NO = 999
REV_AT_EPOCH   = 25687
BSTAR          = .4323299E-3
MEAN_MOTION_DOT = .37011E-3
MEAN_MOTION_DDOT = 0

CCSDS_OMM_VERS = 2.0
CREATION_DATE  = 
ORIGINATOR     = 

OBJECT_NAME    = ISS (NAUKA)
OBJECT_ID      = 2021-066A
CENTER_NAME    = EARTH
REF_FRAME      = TEME
TIME_SYSTEM    = UTC
MEAN_ELEMENT_THEORY = SGP/SGP4

EPOCH          = 2025-10-27T16:24:36.478656
MEAN_MOTION    = 15.49527127
ECCENTRICITY   = .00047051
INCLINATION    = 51.6344
RA_OF_ASC_NODE = 10.4932
ARG_OF_PERICENTER = 346.2107
MEAN_ANOMALY   = 13.8753

EPHEMERIS_TYPE = 0
CLASSIFICATION_TYPE = U
NORAD_CAT_ID   = 49044
ELEMENT_SET_NO = 999
REV_AT_EPOCH   = 23044
BSTAR          = .28486893E-3
MEAN_MOTION_DOT = .1557E-3
MEAN_MOTION_DDOT = 0

CCSDS_OMM_VERS = 2.0
CREATION_DATE  = 
ORIGINATOR     = 

OBJECT_NAME    = FREGAT DEB
OBJECT_ID      = 2011-037PF
CENTER_NAME    = EARTH
REF_FRAME      = TEME
TIME_SYSTEM    = UTC
MEAN_ELEMENT_THEORY = SGP/SGP4

EPOCH          = 2025-10-27T02:04:09.770016
MEAN_MOTION    = 12.33751980
ECCENTRICITY   = .08949517
INCLINATION    = 51.6267
RA_OF_ASC_NODE = 337.3784
ARG_OF_PERICENTER = 123.1118
MEAN_ANOMALY   = 245.8879

EPHEMERIS_TYPE = 0
CLASSIFICATION_TYPE = U
NORAD_CAT_ID   = 49271
ELEMENT_SET_NO = 999
REV_AT_EPOCH   = 19617
BSTAR          = .37790729E-3
MEAN_MOTION_DOT = .81E-6
MEAN_MOTION_DDOT = 0

CCSDS_OMM_VERS = 2.0
CREATION_DATE  = 
ORIGINATOR     = 

OBJECT_NAME    = CSS (WENTIAN)
OBJECT_ID      = 2022-085A
CENTER_NAME    = EARTH
REF_FRAME      = TEME
TIME_SYSTEM    = UTC
MEAN_ELEMENT_THEORY = SGP/SGP4

EPOCH          = 2025-10-27T22:15:25.520544
MEAN_MOTION    = 15.60799969
ECCENTRICITY   = .00108247
INCLINATION    = 41.4667
RA_OF_ASC_NODE = 294.9902
ARG_OF_PERICENTER = 295.4646
MEAN_ANOMALY   = 64.5073

EPHEMERIS_TYPE = 0
CLASSIFICATION_TYPE = U
NORAD_CAT_ID   = 53239
ELEMENT_SET_NO = 999
REV_AT_EPOCH   = 17384
BSTAR          = .4323299E-3
MEAN_MOTION_DOT = .37011E-3
MEAN_MOTION_DDOT = 0

CCSDS_OMM_VERS = 2.0
CREATION_DATE  = 
ORIGINATOR     = 

OBJECT_NAME    = CSS (MENGTIAN)
OBJECT_ID      = 2022-143A
CENTER_NAME    = EARTH
REF_FRAME      = TEME
TIME_SYSTEM    = UTC
MEAN_ELEMENT_THEORY = SGP/SGP4

EPOCH          = 2025-10-27T22:15:25.520544
MEAN_MOTION    = 15.60799969
ECCENTRICITY   = .00108247
INCLINATION    = 41.4667
RA_OF_ASC_NODE = 294.9902
ARG_OF_PERICENTER = 295.4646
MEAN_ANOMALY   = 64.5073

EPHEMERIS_TYPE = 0
CLASSIFICATION_TYPE = U
NORAD_CAT_ID   = 54216
ELEMENT_SET_NO = 999
REV_AT_EPOCH   = 15864
BSTAR          = .4323299E-3
MEAN_MOTION_DOT = .37011E-3
MEAN_MOTION_DDOT = 0

CCSDS_OMM_VERS = 2.0
CREATION_DATE  = 
ORIGINATOR     = 

OBJECT_NAME    = SOYUZ-MS 27
OBJECT_ID      = 2025-072A
CENTER_NAME    = EARTH
REF_FRAME      = TEME
TIME_SYSTEM    = UTC
MEAN_ELEMENT_THEORY = SGP/SGP4

EPOCH          = 2025-10-27T16:24:36.478656
MEAN_MOTION    = 15.49527127
ECCENTRICITY   = .00047051
INCLINATION    = 51.6344
RA_OF_ASC_NODE = 10.4932
ARG_OF_PERICENTER = 346.2107
MEAN_ANOMALY   = 13.8753

EPHEMERIS_TYPE = 0
CLASSIFICATION_TYPE = U
NORAD_CAT_ID   = 63520
ELEMENT_SET_NO = 999
REV_AT_EPOCH   = 2020
BSTAR          = .28486893E-3
MEAN_MOTION_DOT = .1557E-3
MEAN_MOTION_DDOT = 0

CCSDS_OMM_VERS = 2.0
CREATION_DATE  = 
ORIGINATOR     = 

OBJECT_NAME    = SHENZHOU-20 (SZ-20)
OBJECT_ID      = 2025-082A
CENTER_NAME    = EARTH
REF_FRAME      = TEME
TIME_SYSTEM    = UTC
MEAN_ELEMENT_THEORY = SGP/SGP4

EPOCH          = 2025-10-27T22:15:25.520544
MEAN_MOTION    = 15.60799969
ECCENTRICITY   = .00108247
INCLINATION    = 41.4667
RA_OF_ASC_NODE = 294.9902
ARG_OF_PERICENTER = 295.4646
MEAN_ANOMALY   = 64.5073

EPHEMERIS_TYPE = 0
CLASSIFICATION_TYPE = U
NORAD_CAT_ID   = 63632
ELEMENT_SET_NO = 999
REV_AT_EPOCH   = 25530
BSTAR          = .4323299E-3
MEAN_MOTION_DOT = .37011E-3
MEAN_MOTION_DDOT = 0

CCSDS_OMM_VERS = 2.0
CREATION_DATE  = 
ORIGINATOR     = 

OBJECT_NAME    = PROGRESS-MS 31
OBJECT_ID      = 2025-146A
CENTER_NAME    = EARTH
REF_FRAME      = TEME
TIME_SYSTEM    = UTC
MEAN_ELEMENT_THEORY = SGP/SGP4

EPOCH          = 2025-10-27T16:24:36.478656
MEAN_MOTION    = 15.49527127
ECCENTRICITY   = .00047051
INCLINATION    = 51.6344
RA_OF_ASC_NODE = 10.4932
ARG_OF_PERICENTER = 346.2107
MEAN_ANOMALY   = 13.8753

EPHEMERIS_TYPE = 0
CLASSIFICATION_TYPE = U
NORAD_CAT_ID   = 64751
ELEMENT_SET_NO = 999
REV_AT_EPOCH   = 675
BSTAR          = .28486893E-3
MEAN_MOTION_DOT = .1557E-3
MEAN_MOTION_DDOT = 0

CCSDS_OMM_VERS = 2.0
CREATION_DATE  = 
ORIGINATOR     = 

OBJECT_NAME    = TIANZHOU-9
OBJECT_ID      = 2025-149A
CENTER_NAME    = EARTH
REF_FRAME      = TEME
TIME_SYSTEM    = UTC
MEAN_ELEMENT_THEORY = SGP/SGP4

EPOCH          = 2025-10-27T22:15:25.520544
MEAN_MOTION    = 15.60799969
ECCENTRICITY   = .00108247
INCLINATION    = 41.4667
RA_OF_ASC_NODE = 294.9902
ARG_OF_PERICENTER = 295.4646
MEAN_ANOMALY   = 64.5073

EPHEMERIS_TYPE = 0
CLASSIFICATION_TYPE = U
NORAD_CAT_ID   = 64786
ELEMENT_SET_NO = 999
REV_AT_EPOCH   = 25530
BSTAR          = .4323299E-3
MEAN_MOTION_DOT = .37011E-3
MEAN_MOTION_DDOT = 0

CCSDS_OMM_VERS = 2.0
CREATION_DATE  = 
ORIGINATOR     = 

OBJECT_NAME    = CREW DRAGON 11
OBJECT_ID      = 2025-166A
CENTER_NAME    = EARTH
REF_FRAME      = TEME
TIME_SYSTEM    = UTC
MEAN_ELEMENT_THEORY = SGP/SGP4

EPOCH          = 2025-10-27T16:24:36.478656
MEAN_MOTION    = 15.49527127
ECCENTRICITY   = .00047051
INCLINATION    = 51.6344
RA_OF_ASC_NODE = 10.4932
ARG_OF_PERICENTER = 346.2107
MEAN_ANOMALY   = 13.8753

EPHEMERIS_TYPE = 0
CLASSIFICATION_TYPE = U
NORAD_CAT_ID   = 65077
ELEMENT_SET_NO = 999
REV_AT_EPOCH   = 214
BSTAR          = .28486893E-3
MEAN_MOTION_DOT = .1557E-3
MEAN_MOTION_DDOT = 0

CCSDS_OMM_VERS = 2.0
CREATION_DATE  = 
ORIGINATOR     = 

OBJECT_NAME    = DRAGON CRS-33
OBJECT_ID      = 2025-186A
CENTER_NAME    = EARTH
REF_FRAME      = TEME
TIME_SYSTEM    = UTC
MEAN_ELEMENT_THEORY = SGP/SGP4

EPOCH          = 2025-10-27T16:24:36.478656
MEAN_MOTION    = 15.49527127
ECCENTRICITY   = .00047051
INCLINATION    = 51.6344
RA_OF_ASC_NODE = 10.4932
ARG_OF_PERICENTER = 346.2107
MEAN_ANOMALY   = 13.8753

EPHEMERIS_TYPE = 0
CLASSIFICATION_TYPE = U
NORAD_CAT_ID   = 65304
ELEMENT_SET_NO = 999
REV_AT_EPOCH   = 11
BSTAR          = .28486893E-3
MEAN_MOTION_DOT = .1557E-3
MEAN_MOTION_DDOT = 0

